[{"OBJECT_NAME":"LAPAN-A3","OBJECT_ID":"2016-040E","EPOCH":"2026-03-09T23:01:57.724896","MEAN_MOTION":15.3238951,"ECCENTRICITY":0.00109839,"INCLINATION":97.1488,"RA_OF_ASC_NODE":68.4254,"ARG_OF_PERICENTER":22.062,"MEAN_ANOMALY":338.1093,"EPHEMERIS_TYPE":0,"CLASSIFICATION_TYPE":"U","NORAD_CAT_ID":41603,"ELEMENT_SET_NO":999,"REV_AT_EPOCH":53961,"BSTAR":0.00017567445,"MEAN_MOTION_DOT":5.428e-5,"MEAN_MOTION_DDOT":0},{"OBJECT_NAME":"STARLINK-34156","OBJECT_ID":"2025-110N","EPOCH":"2026-03-09T07:13:58.676448","MEAN_MOTION":15.30194747,"ECCENTRICITY":0.00011709,"INCLINATION":53.1605,"RA_OF_ASC_NODE":28.5213,"ARG_OF_PERICENTER":81.6127,"MEAN_ANOMALY":278.5006,"EPHEMERIS_TYPE":0,"CLASSIFICATION_TYPE":"U","NORAD_CAT_ID":64108,"ELEMENT_SET_NO":999,"REV_AT_EPOCH":4582,"BSTAR":0.0012556455,"MEAN_MOTION_DOT":0.00037009,"MEAN_MOTION_DDOT":0}]
